{
  "type": "FeatureCollection",
  "features": [
    {
      "type": "Feature",
      "properties": {
        "norad_id": 24946,
        "name": "IRIDIUM 33",
        "group": "iridium-33-debris",
        "lat": 16.59696466182032,
        "lon": -118.79943637667095,
        "alt_km": 769.4449318176121,
        "timestamp": "2025-12-26T21:25:53.394243+00:00",
        "meta_object_name": "IRIDIUM 33",
        "meta_object_id": "1997-051C",
        "meta_epoch": "2025-12-26T13:58:46.150176",
        "meta_mean_motion": 14.350468,
        "meta_eccentricity": 0.00086556,
        "meta_inclination": 86.3856,
        "meta_ra_of_asc_node": 62.4104,
        "meta_arg_of_pericenter": 156.1022,
        "meta_mean_anomaly": 204.0578,
        "meta_ephemeris_type": 0,
        "meta_classification_type": "U",
        "meta_norad_cat_id": 24946,
        "meta_element_set_no": 999,
        "meta_rev_at_epoch": 48033,
        "meta_bstar": 0.00011738572,
        "meta_mean_motion_dot": 3.54e-06,
        "meta_mean_motion_ddot": 0,
        "tle_line1": "1 24946U 97051C   25360.58247859  .00000354  00000+0  11739-3 0  9996",
        "tle_line2": "2 24946  86.3856  62.4104 0008655 156.1022 204.0578 14.35046800480336"
      },
      "geometry": {
        "type": "Point",
        "coordinates": [
          -118.79943637667095,
          16.59696466182032
        ]
      }
    },
    {
      "type": "Feature",
      "properties": {
        "norad_id": 33773,
        "name": "IRIDIUM 33 DEB",
        "group": "iridium-33-debris",
        "lat": 0.8004520402937028,
        "lon": -125.45921711565458,
        "alt_km": 747.8809016273126,
        "timestamp": "2025-12-26T21:25:53.394279+00:00",
        "meta_object_name": "IRIDIUM 33 DEB",
        "meta_object_id": "1997-051L",
        "meta_epoch": "2025-12-26T13:56:59.891136",
        "meta_mean_motion": 14.43285398,
        "meta_eccentricity": 0.00133381,
        "meta_inclination": 86.3996,
        "meta_ra_of_asc_node": 54.7233,
        "meta_arg_of_pericenter": 106.7873,
        "meta_mean_anomaly": 253.4792,
        "meta_ephemeris_type": 0,
        "meta_classification_type": "U",
        "meta_norad_cat_id": 33773,
        "meta_element_set_no": 999,
        "meta_rev_at_epoch": 88547,
        "meta_bstar": 0.00030304424,
        "meta_mean_motion_dot": 1.041e-05,
        "meta_mean_motion_ddot": 0,
        "tle_line1": "1 33773U 97051L   25360.58124874  .00001041  00000+0  30304-3 0  9998",
        "tle_line2": "2 33773  86.3996  54.7233 0013338 106.7873 253.4792 14.43285398885471"
      },
      "geometry": {
        "type": "Point",
        "coordinates": [
          -125.45921711565458,
          0.8004520402937028
        ]
      }
    },
    {
      "type": "Feature",
      "properties": {
        "norad_id": 33775,
        "name": "IRIDIUM 33 DEB",
        "group": "iridium-33-debris",
        "lat": 8.247307638894455,
        "lon": -137.0181510544293,
        "alt_km": 749.8069173478107,
        "timestamp": "2025-12-26T21:25:53.394295+00:00",
        "meta_object_name": "IRIDIUM 33 DEB",
        "meta_object_id": "1997-051N",
        "meta_epoch": "2025-12-26T14:30:38.060352",
        "meta_mean_motion": 14.41497589,
        "meta_eccentricity": 0.00153846,
        "meta_inclination": 86.3623,
        "meta_ra_of_asc_node": 43.6333,
        "meta_arg_of_pericenter": 113.6049,
        "meta_mean_anomaly": 2.3398,
        "meta_ephemeris_type": 0,
        "meta_classification_type": "U",
        "meta_norad_cat_id": 33775,
        "meta_element_set_no": 999,
        "meta_rev_at_epoch": 88340,
        "meta_bstar": 0.00033397712,
        "meta_mean_motion_dot": 1.105e-05,
        "meta_mean_motion_ddot": 0,
        "tle_line1": "1 33775U 97051N   25360.60460718  .00001105  00000+0  33398-3 0  9990",
        "tle_line2": "2 33775  86.3623  43.6333 0015384 113.6049   2.3398 14.41497589883402"
      },
      "geometry": {
        "type": "Point",
        "coordinates": [
          -137.0181510544293,
          8.247307638894455
        ]
      }
    },
    {
      "type": "Feature",
      "properties": {
        "norad_id": 33776,
        "name": "IRIDIUM 33 DEB",
        "group": "iridium-33-debris",
        "lat": -56.5730686280933,
        "lon": -99.69948491124143,
        "alt_km": 771.6032131022266,
        "timestamp": "2025-12-26T21:25:53.394309+00:00",
        "meta_object_name": "IRIDIUM 33 DEB",
        "meta_object_id": "1997-051P",
        "meta_epoch": "2025-12-26T12:02:11.918976",
        "meta_mean_motion": 14.38258011,
        "meta_eccentricity": 0.00158686,
        "meta_inclination": 86.4031,
        "meta_ra_of_asc_node": 74.9965,
        "meta_arg_of_pericenter": 146.926,
        "meta_mean_anomaly": 224.0176,
        "meta_ephemeris_type": 0,
        "meta_classification_type": "U",
        "meta_norad_cat_id": 33776,
        "meta_element_set_no": 999,
        "meta_rev_at_epoch": 88280,
        "meta_bstar": 0.00026210781,
        "meta_mean_motion_dot": 8.17e-06,
        "meta_mean_motion_ddot": 0,
        "tle_line1": "1 33776U 97051P   25360.50152684  .00000817  00000+0  26211-3 0  9995",
        "tle_line2": "2 33776  86.4031  74.9965 0015868 146.9260 224.0176 14.38258011882807"
      },
      "geometry": {
        "type": "Point",
        "coordinates": [
          -99.69948491124143,
          -56.5730686280933
        ]
      }
    },
    {
      "type": "Feature",
      "properties": {
        "norad_id": 33777,
        "name": "IRIDIUM 33 DEB",
        "group": "iridium-33-debris",
        "lat": -10.301508977056752,
        "lon": -150.2953548262768,
        "alt_km": 706.7837628515108,
        "timestamp": "2025-12-26T21:25:53.394328+00:00",
        "meta_object_name": "IRIDIUM 33 DEB",
        "meta_object_id": "1997-051Q",
        "meta_epoch": "2025-12-26T13:57:40.984704",
        "meta_mean_motion": 14.55708292,
        "meta_eccentricity": 0.00064831,
        "meta_inclination": 86.3775,
        "meta_ra_of_asc_node": 29.1803,
        "meta_arg_of_pericenter": 191.6529,
        "meta_mean_anomaly": 168.453,
        "meta_ephemeris_type": 0,
        "meta_classification_type": "U",
        "meta_norad_cat_id": 33777,
        "meta_element_set_no": 999,
        "meta_rev_at_epoch": 88735,
        "meta_bstar": 0.00083346097,
        "meta_mean_motion_dot": 3.664e-05,
        "meta_mean_motion_ddot": 0,
        "tle_line1": "1 33777U 97051Q   25360.58172436  .00003664  00000+0  83346-3 0  9996",
        "tle_line2": "2 33777  86.3775  29.1803 0006483 191.6529 168.4530 14.55708292887353"
      },
      "geometry": {
        "type": "Point",
        "coordinates": [
          -150.2953548262768,
          -10.301508977056752
        ]
      }
    },
    {
      "type": "Feature",
      "properties": {
        "norad_id": 33850,
        "name": "IRIDIUM 33 DEB",
        "group": "iridium-33-debris",
        "lat": -7.215267578052443,
        "lon": -155.44276546141305,
        "alt_km": 751.7010867862327,
        "timestamp": "2025-12-26T21:25:53.394341+00:00",
        "meta_object_name": "IRIDIUM 33 DEB",
        "meta_object_id": "1997-051T",
        "meta_epoch": "2025-12-26T12:56:59.127072",
        "meta_mean_motion": 14.42181449,
        "meta_eccentricity": 0.00133444,
        "meta_inclination": 86.3409,
        "meta_ra_of_asc_node": 24.245,
        "meta_arg_of_pericenter": 120.0989,
        "meta_mean_anomaly": 33.2041,
        "meta_ephemeris_type": 0,
        "meta_classification_type": "U",
        "meta_norad_cat_id": 33850,
        "meta_element_set_no": 999,
        "meta_rev_at_epoch": 88351,
        "meta_bstar": 0.00043866705,
        "meta_mean_motion_dot": 1.465e-05,
        "meta_mean_motion_ddot": 0,
        "tle_line1": "1 33850U 97051T   25360.53957323  .00001465  00000+0  43867-3 0  9990",
        "tle_line2": "2 33850  86.3409  24.2450 0013344 120.0989  33.2041 14.42181449883518"
      },
      "geometry": {
        "type": "Point",
        "coordinates": [
          -155.44276546141305,
          -7.215267578052443
        ]
      }
    },
    {
      "type": "Feature",
      "properties": {
        "norad_id": 33853,
        "name": "IRIDIUM 33 DEB",
        "group": "iridium-33-debris",
        "lat": 1.3249838806824261,
        "lon": 163.51181472420183,
        "alt_km": 752.5173103687066,
        "timestamp": "2025-12-26T21:25:53.394354+00:00",
        "meta_object_name": "IRIDIUM 33 DEB",
        "meta_object_id": "1997-051W",
        "meta_epoch": "2025-12-26T10:52:30.840672",
        "meta_mean_motion": 13.99126555,
        "meta_eccentricity": 0.02078029,
        "meta_inclination": 86.0001,
        "meta_ra_of_asc_node": 343.7973,
        "meta_arg_of_pericenter": 193.5253,
        "meta_mean_anomaly": 291.4961,
        "meta_ephemeris_type": 0,
        "meta_classification_type": "U",
        "meta_norad_cat_id": 33853,
        "meta_element_set_no": 999,
        "meta_rev_at_epoch": 85537,
        "meta_bstar": 0.0011675323,
        "meta_mean_motion_dot": 2.052e-05,
        "meta_mean_motion_ddot": 0,
        "tle_line1": "1 33853U 97051W   25360.45313473  .00002052  00000+0  11675-2 0  9990",
        "tle_line2": "2 33853  86.0001 343.7973 0207802 193.5253 291.4961 13.99126555855378"
      },
      "geometry": {
        "type": "Point",
        "coordinates": [
          163.51181472420183,
          1.3249838806824261
        ]
      }
    }
  ]
}